STARLINK-3294           
1 50829U 22001AC  26068.50033207 -.00000895  00000+0 -38126-4 0  9998
2 50829  53.2176 169.9689 0001444 103.8917 256.2236 15.08832734230372
LEMUR-2-UNTITLED-SC     
1 63351U 25061A   26068.89211098  .00005783  00000+0  33296-3 0  9990
2 63351  97.5556  45.0864 0017373 245.6030 114.3388 15.12695529 52577
